{
  "norad_id": 68736,
  "name": "STARLINK-37327",
  "history": [
    {
      "epoch": "2026-04-23T13:12:13.365216Z",
      "apogee_km": 325.3705114276099,
      "perigee_km": 322.480314032744,
      "latitude_deg": -6.242649265214503e-05,
      "longitude_deg": -73.97465905935861,
      "height_km": 328.53243448333484,
      "semi_major_axis_km": 6702.062412730176,
      "eccentricity": 0.00021562,
      "inclination_deg": 97.2886,
      "raan_deg": 335.6768,
      "arg_perigee_deg": 171.5544,
      "mean_anomaly_deg": 188.5761,
      "mean_motion_rev_day": 15.82304489
    }
  ]
}