STARLINK-37327          
1 68736U 26082J   26113.55015469 -.00294793  00000+0 -14848-2 0  9998
2 68736  97.2886 335.6768 0002156 171.5544 188.5761 15.82304489  1181
